ATLAS CENTAUR R/B       
1 06155U 72065B   26030.65215554  .00001745  00000+0  24147-3 0  9998
2 06155  35.0001 168.6458 0033252  49.1999 311.1579 14.77569722835634
SL-8 R/B                
1 08459U 75112B   26031.28857861  .00000258  00000+0  93597-4 0  9990
2 08459  74.0600  87.7186 0015786 193.0520 167.0228 14.38184230626496
SL-3 R/B                
1 10114U 77057B   26031.28201739  .00012346  00000+0  26894-3 0  9994
2 10114  97.5713 201.6009 0008456  62.3767 297.8339 15.44388755662558
SEASAT 1                
1 10967U 78064A   26031.28106509  .00000391  00000+0  14767-3 0  9991
2 10967 108.0165  46.9914 0001396 289.8311  70.2684 14.46126600501104
SL-14 R/B               
1 11267U 79011B   26031.28895382  .00000841  00000+0  80618-4 0  9991
2 11267  82.5261 132.0544 0016101 177.2623 182.8688 14.91857470523208
SL-8 R/B                
1 11574U 79089B   26031.29114535  .00000363  00000+0  11764-3 0  9996
2 11574  74.0693 160.2675 0016236 338.0401  22.0057 14.42325302430710
SL-14 R/B               
1 11672U 80005B   26031.27742043  .00000867  00000+0  85368-4 0  9995
2 11672  82.5169 342.7130 0014240 290.8392  69.1302 14.90875408470912
SL-8 R/B                
1 12139U 81003B   26031.30070126  .00024520  00000+0  65092-3 0  9996
2 12139  82.9395 324.5586 0265428 309.3855  48.4131 15.09512751309039
SL-3 R/B                
1 12465U 81046B   26031.26402847  .00012218  00000+0  29411-3 0  9995
2 12465  81.2344 334.6362 0020200 144.6843 215.5743 15.40926942432663
SL-3 R/B                
1 12904U 81103B   26031.27736623  .00004947  00000+0  22196-3 0  9993
2 12904  81.1573 257.3131 0014110  53.1900 307.0623 15.20920071967549
SL-3 R/B                
1 13068U 82013B   26031.23585681  .00004747  00000+0  20799-3 0  9993
2 13068  81.1722 204.6501 0021934 307.7439  52.1804 15.21591599398659
SL-3 R/B                
1 13154U 82039B   26031.28242939  .00002554  00000+0  15471-3 0  9993
2 13154  81.1636 259.0743 0030076  86.8348 273.6317 15.09870410375991
