CCSDS_OMM_VERS = 2.0
CREATION_DATE  = 
ORIGINATOR     = 

OBJECT_NAME    = ATLAS CENTAUR R/B
OBJECT_ID      = 1972-065B
CENTER_NAME    = EARTH
REF_FRAME      = TEME
TIME_SYSTEM    = UTC
MEAN_ELEMENT_THEORY = SGP/SGP4

EPOCH          = 2026-01-30T15:39:06.238656
MEAN_MOTION    = 14.77569722
ECCENTRICITY   = .00332528
INCLINATION    = 35.0001
RA_OF_ASC_NODE = 168.6458
ARG_OF_PERICENTER = 49.1999
MEAN_ANOMALY   = 311.1579

EPHEMERIS_TYPE = 0
CLASSIFICATION_TYPE = U
NORAD_CAT_ID   = 6155
ELEMENT_SET_NO = 999
REV_AT_EPOCH   = 83563
BSTAR          = .24147454E-3
MEAN_MOTION_DOT = .1745E-4
MEAN_MOTION_DDOT = 0

CCSDS_OMM_VERS = 2.0
CREATION_DATE  = 
ORIGINATOR     = 

OBJECT_NAME    = SL-8 R/B
OBJECT_ID      = 1975-112B
CENTER_NAME    = EARTH
REF_FRAME      = TEME
TIME_SYSTEM    = UTC
MEAN_ELEMENT_THEORY = SGP/SGP4

EPOCH          = 2026-01-31T06:55:33.191904
MEAN_MOTION    = 14.38184230
ECCENTRICITY   = .00157864
INCLINATION    = 74.0600
RA_OF_ASC_NODE = 87.7186
ARG_OF_PERICENTER = 193.0520
MEAN_ANOMALY   = 167.0228

EPHEMERIS_TYPE = 0
CLASSIFICATION_TYPE = U
NORAD_CAT_ID   = 8459
ELEMENT_SET_NO = 999
REV_AT_EPOCH   = 62649
BSTAR          = .93596651E-4
MEAN_MOTION_DOT = .258E-5
MEAN_MOTION_DDOT = 0

CCSDS_OMM_VERS = 2.0
CREATION_DATE  = 
ORIGINATOR     = 

OBJECT_NAME    = SL-3 R/B
OBJECT_ID      = 1977-057B
CENTER_NAME    = EARTH
REF_FRAME      = TEME
TIME_SYSTEM    = UTC
MEAN_ELEMENT_THEORY = SGP/SGP4

EPOCH          = 2026-01-31T06:46:06.302496
MEAN_MOTION    = 15.44388755
ECCENTRICITY   = .00084565
INCLINATION    = 97.5713
RA_OF_ASC_NODE = 201.6009
ARG_OF_PERICENTER = 62.3767
MEAN_ANOMALY   = 297.8339

EPHEMERIS_TYPE = 0
CLASSIFICATION_TYPE = U
NORAD_CAT_ID   = 10114
ELEMENT_SET_NO = 999
REV_AT_EPOCH   = 66255
BSTAR          = .26893918E-3
MEAN_MOTION_DOT = .12346E-3
MEAN_MOTION_DDOT = 0

CCSDS_OMM_VERS = 2.0
CREATION_DATE  = 
ORIGINATOR     = 

OBJECT_NAME    = SEASAT 1
OBJECT_ID      = 1978-064A
CENTER_NAME    = EARTH
REF_FRAME      = TEME
TIME_SYSTEM    = UTC
MEAN_ELEMENT_THEORY = SGP/SGP4

EPOCH          = 2026-01-31T06:44:44.023776
MEAN_MOTION    = 14.46126600
ECCENTRICITY   = .0001396
INCLINATION    = 108.0165
RA_OF_ASC_NODE = 46.9914
ARG_OF_PERICENTER = 289.8311
MEAN_ANOMALY   = 70.2684

EPHEMERIS_TYPE = 0
CLASSIFICATION_TYPE = U
NORAD_CAT_ID   = 10967
ELEMENT_SET_NO = 999
REV_AT_EPOCH   = 50110
BSTAR          = .14767408E-3
MEAN_MOTION_DOT = .391E-5
MEAN_MOTION_DDOT = 0

CCSDS_OMM_VERS = 2.0
CREATION_DATE  = 
ORIGINATOR     = 

OBJECT_NAME    = SL-14 R/B
OBJECT_ID      = 1979-011B
CENTER_NAME    = EARTH
REF_FRAME      = TEME
TIME_SYSTEM    = UTC
MEAN_ELEMENT_THEORY = SGP/SGP4

EPOCH          = 2026-01-31T06:56:05.610048
MEAN_MOTION    = 14.91857470
ECCENTRICITY   = .00161012
INCLINATION    = 82.5261
RA_OF_ASC_NODE = 132.0544
ARG_OF_PERICENTER = 177.2623
MEAN_ANOMALY   = 182.8688

EPHEMERIS_TYPE = 0
CLASSIFICATION_TYPE = U
NORAD_CAT_ID   = 11267
ELEMENT_SET_NO = 999
REV_AT_EPOCH   = 52320
BSTAR          = .80617828E-4
MEAN_MOTION_DOT = .841E-5
MEAN_MOTION_DDOT = 0

CCSDS_OMM_VERS = 2.0
CREATION_DATE  = 
ORIGINATOR     = 

OBJECT_NAME    = SL-8 R/B
OBJECT_ID      = 1979-089B
CENTER_NAME    = EARTH
REF_FRAME      = TEME
TIME_SYSTEM    = UTC
MEAN_ELEMENT_THEORY = SGP/SGP4

EPOCH          = 2026-01-31T06:59:14.958240
MEAN_MOTION    = 14.42325302
ECCENTRICITY   = .0016236
INCLINATION    = 74.0693
RA_OF_ASC_NODE = 160.2675
ARG_OF_PERICENTER = 338.0401
MEAN_ANOMALY   = 22.0057

EPHEMERIS_TYPE = 0
CLASSIFICATION_TYPE = U
NORAD_CAT_ID   = 11574
ELEMENT_SET_NO = 999
REV_AT_EPOCH   = 43071
BSTAR          = .11763896E-3
MEAN_MOTION_DOT = .363E-5
MEAN_MOTION_DDOT = 0

CCSDS_OMM_VERS = 2.0
CREATION_DATE  = 
ORIGINATOR     = 

OBJECT_NAME    = SL-14 R/B
OBJECT_ID      = 1980-005B
CENTER_NAME    = EARTH
REF_FRAME      = TEME
TIME_SYSTEM    = UTC
MEAN_ELEMENT_THEORY = SGP/SGP4

EPOCH          = 2026-01-31T06:39:29.125152
MEAN_MOTION    = 14.90875408
ECCENTRICITY   = .00142401
INCLINATION    = 82.5169
RA_OF_ASC_NODE = 342.7130
ARG_OF_PERICENTER = 290.8392
MEAN_ANOMALY   = 69.1302

EPHEMERIS_TYPE = 0
CLASSIFICATION_TYPE = U
NORAD_CAT_ID   = 11672
ELEMENT_SET_NO = 999
REV_AT_EPOCH   = 47091
BSTAR          = .85368497E-4
MEAN_MOTION_DOT = .867E-5
MEAN_MOTION_DDOT = 0

CCSDS_OMM_VERS = 2.0
CREATION_DATE  = 
ORIGINATOR     = 

OBJECT_NAME    = SL-8 R/B
OBJECT_ID      = 1981-003B
CENTER_NAME    = EARTH
REF_FRAME      = TEME
TIME_SYSTEM    = UTC
MEAN_ELEMENT_THEORY = SGP/SGP4

EPOCH          = 2026-01-31T07:13:00.588864
MEAN_MOTION    = 15.09512751
ECCENTRICITY   = .02654283
INCLINATION    = 82.9395
RA_OF_ASC_NODE = 324.5586
ARG_OF_PERICENTER = 309.3855
MEAN_ANOMALY   = 48.4131

EPHEMERIS_TYPE = 0
CLASSIFICATION_TYPE = U
NORAD_CAT_ID   = 12139
ELEMENT_SET_NO = 999
REV_AT_EPOCH   = 30903
BSTAR          = .65092448E-3
MEAN_MOTION_DOT = .2452E-3
MEAN_MOTION_DDOT = 0

CCSDS_OMM_VERS = 2.0
CREATION_DATE  = 
ORIGINATOR     = 

OBJECT_NAME    = SL-3 R/B
OBJECT_ID      = 1981-046B
CENTER_NAME    = EARTH
REF_FRAME      = TEME
TIME_SYSTEM    = UTC
MEAN_ELEMENT_THEORY = SGP/SGP4

EPOCH          = 2026-01-31T06:20:12.059808
MEAN_MOTION    = 15.40926942
ECCENTRICITY   = .00202
INCLINATION    = 81.2344
RA_OF_ASC_NODE = 334.6362
ARG_OF_PERICENTER = 144.6843
MEAN_ANOMALY   = 215.5743

EPHEMERIS_TYPE = 0
CLASSIFICATION_TYPE = U
NORAD_CAT_ID   = 12465
ELEMENT_SET_NO = 999
REV_AT_EPOCH   = 43266
BSTAR          = .29411059E-3
MEAN_MOTION_DOT = .12218E-3
MEAN_MOTION_DDOT = 0

CCSDS_OMM_VERS = 2.0
CREATION_DATE  = 
ORIGINATOR     = 

OBJECT_NAME    = SL-3 R/B
OBJECT_ID      = 1981-103B
CENTER_NAME    = EARTH
REF_FRAME      = TEME
TIME_SYSTEM    = UTC
MEAN_ELEMENT_THEORY = SGP/SGP4

EPOCH          = 2026-01-31T06:39:24.442272
MEAN_MOTION    = 15.20920071
ECCENTRICITY   = .00141107
INCLINATION    = 81.1573
RA_OF_ASC_NODE = 257.3131
ARG_OF_PERICENTER = 53.1900
MEAN_ANOMALY   = 307.0623

EPHEMERIS_TYPE = 0
CLASSIFICATION_TYPE = U
NORAD_CAT_ID   = 12904
ELEMENT_SET_NO = 999
REV_AT_EPOCH   = 96754
BSTAR          = .22196061E-3
MEAN_MOTION_DOT = .4947E-4
MEAN_MOTION_DDOT = 0

CCSDS_OMM_VERS = 2.0
CREATION_DATE  = 
ORIGINATOR     = 

OBJECT_NAME    = SL-3 R/B
OBJECT_ID      = 1982-013B
CENTER_NAME    = EARTH
REF_FRAME      = TEME
TIME_SYSTEM    = UTC
MEAN_ELEMENT_THEORY = SGP/SGP4

EPOCH          = 2026-01-31T05:39:38.028384
MEAN_MOTION    = 15.21591599
ECCENTRICITY   = .00219343
INCLINATION    = 81.1722
RA_OF_ASC_NODE = 204.6501
ARG_OF_PERICENTER = 307.7439
MEAN_ANOMALY   = 52.1804

EPHEMERIS_TYPE = 0
CLASSIFICATION_TYPE = U
NORAD_CAT_ID   = 13068
ELEMENT_SET_NO = 999
REV_AT_EPOCH   = 39865
BSTAR          = .20799304E-3
MEAN_MOTION_DOT = .4747E-4
MEAN_MOTION_DDOT = 0

CCSDS_OMM_VERS = 2.0
CREATION_DATE  = 
ORIGINATOR     = 

OBJECT_NAME    = SL-3 R/B
OBJECT_ID      = 1982-039B
CENTER_NAME    = EARTH
REF_FRAME      = TEME
TIME_SYSTEM    = UTC
MEAN_ELEMENT_THEORY = SGP/SGP4

EPOCH          = 2026-01-31T06:46:41.899296
MEAN_MOTION    = 15.09870410
ECCENTRICITY   = .00300764
INCLINATION    = 81.1636
RA_OF_ASC_NODE = 259.0743
ARG_OF_PERICENTER = 86.8348
MEAN_ANOMALY   = 273.6317

EPHEMERIS_TYPE = 0
CLASSIFICATION_TYPE = U
NORAD_CAT_ID   = 13154
ELEMENT_SET_NO = 999
REV_AT_EPOCH   = 37599
BSTAR          = .15470948E-3
MEAN_MOTION_DOT = .2554E-4
MEAN_MOTION_DDOT = 0

